{
    "CCSDS_OMM_VERS": "3.0",
    "COMMENT": "GENERATED VIA SPACE-TRACK.ORG API",
    "CREATION_DATE": "2025-05-22T17:14:14",
    "ORIGINATOR": "18 SPCS",
    "OBJECT_NAME": "BEIDOU 9",
    "OBJECT_ID": "2011-038A",
    "CENTER_NAME": "EARTH",
    "REF_FRAME": "TEME",
    "TIME_SYSTEM": "UTC",
    "MEAN_ELEMENT_THEORY": "SGP4",
    "EPOCH": "2025-05-22T12:53:12.716736",
    "MEAN_MOTION": "1.00282630",
    "ECCENTRICITY": "0.01433540",
    "INCLINATION": "54.5741",
    "RA_OF_ASC_NODE": "169.1682",
    "ARG_OF_PERICENTER": "231.0233",
    "MEAN_ANOMALY": "127.9338",
    "EPHEMERIS_TYPE": "0",
    "CLASSIFICATION_TYPE": "U",
    "NORAD_CAT_ID": "37763",
    "ELEMENT_SET_NO": "999",
    "REV_AT_EPOCH": "5073",
    "BSTAR": "0.00000000000000",
    "MEAN_MOTION_DOT": "0.00000067",
    "MEAN_MOTION_DDOT": "0.0000000000000",
    "SEMIMAJOR_AXIS": "42161.692",
    "PERIOD": "1435.942",
    "APOAPSIS": "36387.962",
    "PERIAPSIS": "35179.152",
    "OBJECT_TYPE": "PAYLOAD",
    "RCS_SIZE": "LARGE",
    "COUNTRY_CODE": "PRC",
    "LAUNCH_DATE": "2011-07-26",
    "SITE": "XSC",
    "DECAY_DATE": null,
    "FILE": "4736220",
    "GP_ID": "288141772",
    "TLE_LINE0": "0 BEIDOU 9",
    "TLE_LINE1": "1 37763U 11038A   25142.53695274  .00000067  00000-0  00000-0 0  9997",
    "TLE_LINE2": "2 37763  54.5741 169.1682 0143354 231.0233 127.9338  1.00282630 50731"
}